[{"OBJECT_NAME":"YUNHAI-2 01F","OBJECT_ID":"2018-112G","EPOCH":"2026-03-09T22:32:39.167808","MEAN_MOTION":14.28981897,"ECCENTRICITY":0.00070201,"INCLINATION":50.0111,"RA_OF_ASC_NODE":288.9308,"ARG_OF_PERICENTER":341.2274,"MEAN_ANOMALY":18.8381,"EPHEMERIS_TYPE":0,"CLASSIFICATION_TYPE":"U","NORAD_CAT_ID":43915,"ELEMENT_SET_NO":999,"REV_AT_EPOCH":37411,"BSTAR":2.0666219e-5,"MEAN_MOTION_DOT":-1.09e-6,"MEAN_MOTION_DDOT":0},{"OBJECT_NAME":"THOR AGENA D R\/B","OBJECT_ID":"1964-031C","EPOCH":"2026-03-09T17:28:35.182272","MEAN_MOTION":14.28465337,"ECCENTRICITY":0.00110399,"INCLINATION":99.8131,"RA_OF_ASC_NODE":6.7211,"ARG_OF_PERICENTER":216.0342,"MEAN_ANOMALY":144.0092,"EPHEMERIS_TYPE":0,"CLASSIFICATION_TYPE":"U","NORAD_CAT_ID":815,"ELEMENT_SET_NO":999,"REV_AT_EPOCH":20680,"BSTAR":0.00012001937,"MEAN_MOTION_DOT":2.46e-6,"MEAN_MOTION_DDOT":0}]
